{
  "type": "FeatureCollection",
  "features": [
    {
      "type": "Feature",
      "properties": {
        "norad_id": 37565,
        "name": "IRIDIUM 33 DEB",
        "group": "iridium-33-debris",
        "lat": -32.75905443851007,
        "lon": 1.2734090516675007,
        "alt_km": 724.0490738607614,
        "timestamp": "2025-12-26T09:30:54.024987+00:00",
        "meta_object_name": "IRIDIUM 33 DEB",
        "meta_object_id": "1997-051YA",
        "meta_epoch": "2025-12-22T08:03:11.421504",
        "meta_mean_motion": 14.51554431,
        "meta_eccentricity": 0.00147764,
        "meta_inclination": 86.3487,
        "meta_ra_of_asc_node": 5.397,
        "meta_arg_of_pericenter": 56.1153,
        "meta_mean_anomaly": 304.1456,
        "meta_ephemeris_type": 0,
        "meta_classification_type": "U",
        "meta_norad_cat_id": 37565,
        "meta_element_set_no": 999,
        "meta_rev_at_epoch": 65976,
        "meta_bstar": 0.00051713633,
        "meta_mean_motion_dot": 2.092e-05,
        "meta_mean_motion_ddot": 0,
        "tle_line1": "1 37565U 97051YA  25356.33554886  .00002092  00000+0  51714-3 0  9994",
        "tle_line2": "2 37565  86.3487   5.3970 0014776  56.1153 304.1456 14.51554431659763"
      },
      "geometry": {
        "type": "Point",
        "coordinates": [
          1.2734090516675007,
          -32.75905443851007
        ]
      }
    },
    {
      "type": "Feature",
      "properties": {
        "norad_id": 38017,
        "name": "IRIDIUM 33 DEB",
        "group": "iridium-33-debris",
        "lat": -58.584301378233384,
        "lon": 154.27475418610328,
        "alt_km": 762.484229505887,
        "timestamp": "2025-12-26T09:30:54.024997+00:00",
        "meta_object_name": "IRIDIUM 33 DEB",
        "meta_object_id": "1997-051YD",
        "meta_epoch": "2025-12-25T03:57:42.952608",
        "meta_mean_motion": 14.49417684,
        "meta_eccentricity": 0.0091171,
        "meta_inclination": 86.3404,
        "meta_ra_of_asc_node": 160.8254,
        "meta_arg_of_pericenter": 61.3725,
        "meta_mean_anomaly": 299.6612,
        "meta_ephemeris_type": 0,
        "meta_classification_type": "U",
        "meta_norad_cat_id": 38017,
        "meta_element_set_no": 999,
        "meta_rev_at_epoch": 61582,
        "meta_bstar": 0.0046751,
        "meta_mean_motion_dot": 0.00018909,
        "meta_mean_motion_ddot": 0,
        "tle_line1": "1 38017U 97051YD  25359.16508047  .00018909  00000+0  46751-2 0  9997",
        "tle_line2": "2 38017  86.3404 160.8254 0091171  61.3725 299.6612 14.49417684615820"
      },
      "geometry": {
        "type": "Point",
        "coordinates": [
          154.27475418610328,
          -58.584301378233384
        ]
      }
    },
    {
      "type": "Feature",
      "properties": {
        "norad_id": 38022,
        "name": "IRIDIUM 33 DEB",
        "group": "iridium-33-debris",
        "lat": 54.447590847969515,
        "lon": 15.701704158139352,
        "alt_km": 727.4883013137496,
        "timestamp": "2025-12-26T09:30:54.025007+00:00",
        "meta_object_name": "IRIDIUM 33 DEB",
        "meta_object_id": "1997-051YJ",
        "meta_epoch": "2025-12-23T07:57:08.773056",
        "meta_mean_motion": 14.41313849,
        "meta_eccentricity": 0.00453843,
        "meta_inclination": 86.2683,
        "meta_ra_of_asc_node": 11.8042,
        "meta_arg_of_pericenter": 16.2864,
        "meta_mean_anomaly": 343.9781,
        "meta_ephemeris_type": 0,
        "meta_classification_type": "U",
        "meta_norad_cat_id": 38022,
        "meta_element_set_no": 999,
        "meta_rev_at_epoch": 69346,
        "meta_bstar": 0.0010847612,
        "meta_mean_motion_dot": 3.57e-05,
        "meta_mean_motion_ddot": 0,
        "tle_line1": "1 38022U 97051YJ  25357.33135154  .00003570  00000+0  10848-2 0  9991",
        "tle_line2": "2 38022  86.2683  11.8042 0045384  16.2864 343.9781 14.41313849693468"
      },
      "geometry": {
        "type": "Point",
        "coordinates": [
          15.701704158139352,
          54.447590847969515
        ]
      }
    },
    {
      "type": "Feature",
      "properties": {
        "norad_id": 38028,
        "name": "IRIDIUM 33 DEB",
        "group": "iridium-33-debris",
        "lat": 77.68669053965067,
        "lon": 11.456190503249434,
        "alt_km": 709.1948534116755,
        "timestamp": "2025-12-26T09:30:54.025017+00:00",
        "meta_object_name": "IRIDIUM 33 DEB",
        "meta_object_id": "1997-051YQ",
        "meta_epoch": "2025-12-19T17:44:22.316352",
        "meta_mean_motion": 14.46188799,
        "meta_eccentricity": 0.0030512,
        "meta_inclination": 86.3252,
        "meta_ra_of_asc_node": 357.2262,
        "meta_arg_of_pericenter": 99.065,
        "meta_mean_anomaly": 261.4007,
        "meta_ephemeris_type": 0,
        "meta_classification_type": "U",
        "meta_norad_cat_id": 38028,
        "meta_element_set_no": 999,
        "meta_rev_at_epoch": 65596,
        "meta_bstar": 0.00016660929,
        "meta_mean_motion_dot": 6.2e-06,
        "meta_mean_motion_ddot": 0,
        "tle_line1": "1 38028U 97051YQ  25353.73914718  .00000620  00000+0  16661-3 0  9991",
        "tle_line2": "2 38028  86.3252 357.2262 0030512  99.0650 261.4007 14.46188799655964"
      },
      "geometry": {
        "type": "Point",
        "coordinates": [
          11.456190503249434,
          77.68669053965067
        ]
      }
    },
    {
      "type": "Feature",
      "properties": {
        "norad_id": 38228,
        "name": "IRIDIUM 33 DEB",
        "group": "iridium-33-debris",
        "lat": 15.714678110158367,
        "lon": -138.3818034584256,
        "alt_km": 757.227590727678,
        "timestamp": "2025-12-26T09:30:54.025027+00:00",
        "meta_object_name": "IRIDIUM 33 DEB",
        "meta_object_id": "1997-051ZC",
        "meta_epoch": "2025-12-20T22:20:09.818016",
        "meta_mean_motion": 14.2727844,
        "meta_eccentricity": 0.0065198,
        "meta_inclination": 86.2935,
        "meta_ra_of_asc_node": 44.9869,
        "meta_arg_of_pericenter": 163.0896,
        "meta_mean_anomaly": 14.0405,
        "meta_ephemeris_type": 0,
        "meta_classification_type": "U",
        "meta_norad_cat_id": 38228,
        "meta_element_set_no": 999,
        "meta_rev_at_epoch": 84898,
        "meta_bstar": 0.00020665,
        "meta_mean_motion_dot": 5.36e-06,
        "meta_mean_motion_ddot": 0,
        "tle_line1": "1 38228U 97051ZC  25354.93066919  .00000536  00000+0  20665-3 0  9992",
        "tle_line2": "2 38228  86.2935  44.9869 0065198 163.0896  14.0405 14.27278440848980"
      },
      "geometry": {
        "type": "Point",
        "coordinates": [
          -138.3818034584256,
          15.714678110158367
        ]
      }
    },
    {
      "type": "Feature",
      "properties": {
        "norad_id": 38241,
        "name": "IRIDIUM 33 DEB",
        "group": "iridium-33-debris",
        "lat": 1.837142741453546,
        "lon": -15.30867700432049,
        "alt_km": 709.6864269520711,
        "timestamp": "2025-12-26T09:30:54.025037+00:00",
        "meta_object_name": "IRIDIUM 33 DEB",
        "meta_object_id": "1997-051ZR",
        "meta_epoch": "2025-12-25T07:05:48.823008",
        "meta_mean_motion": 14.54944281,
        "meta_eccentricity": 0.0004906,
        "meta_inclination": 86.3239,
        "meta_ra_of_asc_node": 345.0585,
        "meta_arg_of_pericenter": 45.5545,
        "meta_mean_anomaly": 314.6063,
        "meta_ephemeris_type": 0,
        "meta_classification_type": "U",
        "meta_norad_cat_id": 38241,
        "meta_element_set_no": 999,
        "meta_rev_at_epoch": 60383,
        "meta_bstar": 0.00082968,
        "meta_mean_motion_dot": 3.588e-05,
        "meta_mean_motion_ddot": 0,
        "tle_line1": "1 38241U 97051ZR  25359.29570397  .00003588  00000+0  82968-3 0  9995",
        "tle_line2": "2 38241  86.3239 345.0585 0004906  45.5545 314.6063 14.54944281603833"
      },
      "geometry": {
        "type": "Point",
        "coordinates": [
          -15.30867700432049,
          1.837142741453546
        ]
      }
    },
    {
      "type": "Feature",
      "properties": {
        "norad_id": 38474,
        "name": "IRIDIUM 33 DEB",
        "group": "iridium-33-debris",
        "lat": -70.70600038880175,
        "lon": -6.414911790662939,
        "alt_km": 738.8957444642665,
        "timestamp": "2025-12-26T09:30:54.025047+00:00",
        "meta_object_name": "IRIDIUM 33 DEB",
        "meta_object_id": "1997-051AAB",
        "meta_epoch": "2025-12-21T07:20:31.212384",
        "meta_mean_motion": 14.50718538,
        "meta_eccentricity": 0.00276153,
        "meta_inclination": 86.3426,
        "meta_ra_of_asc_node": 6.3307,
        "meta_arg_of_pericenter": 61.1056,
        "meta_mean_anomaly": 299.2914,
        "meta_ephemeris_type": 0,
        "meta_classification_type": "U",
        "meta_norad_cat_id": 38474,
        "meta_element_set_no": 999,
        "meta_rev_at_epoch": 65442,
        "meta_bstar": 0.00039085525,
        "meta_mean_motion_dot": 1.564e-05,
        "meta_mean_motion_ddot": 0,
        "tle_line1": "1 38474U 97051AAB 25355.30591681  .00001564  00000+0  39086-3 0  9995",
        "tle_line2": "2 38474  86.3426   6.3307 0027615  61.1056 299.2914 14.50718538654425"
      },
      "geometry": {
        "type": "Point",
        "coordinates": [
          -6.414911790662939,
          -70.70600038880175
        ]
      }
    }
  ]
}